NOAA 20 (JPSS-1)        
1 43013U 17073A   26060.44065059  .00000089  00000+0  63003-4 0  9998
2 43013  98.7682   0.9103 0000833 147.1557 212.9671 14.19533575429185
GOES 17                 
1 43226U 18022A   26060.43284451 -.00000200  00000+0  00000+0 0  9996
2 43226   0.6603  87.6177 0002408 216.9710 280.9615  1.00270589 29341
FENGYUN 2H              
1 43491U 18050A   26060.39124598 -.00000144  00000+0  00000+0 0  9998
2 43491   2.7521  80.3886 0002074 173.4178 125.2779  1.00272561 28352
METOP-C                 
1 43689U 18087A   26060.44515377  .00000140  00000+0  83715-4 0  9996
2 43689  98.6784 121.9574 0002141 111.3696 248.7710 14.21493842379521
GEO-KOMPSAT-2A          
1 43823U 18100A   26059.50554706 -.00000362  00000+0  00000+0 0  9994
2 43823   0.0143  67.9082 0001217 328.9393  71.7104  1.00270672 26542
METEOR-M2 2             
1 44387U 19038A   26060.55606806  .00000241  00000+0  12399-3 0  9990
2 44387  98.9070  46.2959 0001329  18.1438 341.9787 14.24330665345977
ARKTIKA-M 1             
1 47719U 21016A   26060.32752596 -.00000122  00000+0  00000+0 0  9995
2 47719  63.2029  73.0745 7242120 269.4440  15.2028  2.00621249 36626
FENGYUN 3E              
1 49008U 21062A   26060.52782740 -.00000076  00000+0 -15302-4 0  9990
2 49008  98.7510  65.1332 0002562  56.4291 303.7130 14.19892350241304
GOES 18                 
1 51850U 22021A   26060.52116115  .00000079  00000+0  00000+0 0  9996
2 51850   0.0223  74.2982 0000590 314.9670 180.6511  1.00270442  5517
NOAA 21 (JPSS-2)        
1 54234U 22150A   26060.47544922  .00000081  00000+0  59399-4 0  9996
2 54234  98.7545   0.8359 0002452 121.4344 238.7072 14.19549554171268
METEOSAT-12 (MTG-I1)    
1 54743U 22170C   26060.30449226 -.00000025  00000+0  00000+0 0  9995
2 54743   0.7416  28.6879 0001988 278.6270 321.0943  1.00274095 11890
TIANMU-1 03             
1 55973U 23039A   26060.51913060  .00020146  00000+0  44581-3 0  9992
2 55973  97.5159 230.5642 0003939 124.7049 235.4570 15.43833902164207
TIANMU-1 04             
1 55974U 23039B   26060.47994538  .00021716  00000+0  47380-3 0  9991
2 55974  97.5091 229.6864 0004643 121.5667 238.6034 15.44235762164203
TIANMU-1 05             
1 55975U 23039C   26060.49540251  .00020229  00000+0  44853-3 0  9993
2 55975  97.5140 230.1940 0003636 142.6280 217.5222 15.43775422164180
TIANMU-1 06             
1 55976U 23039D   26060.47990704  .00020748  00000+0  45240-3 0  9991
2 55976  97.5149 230.7109 0004039 138.2246 221.9311 15.44266359164200
FENGYUN 3G              
1 56232U 23055A   26060.53322328  .00037431  00000+0  57057-3 0  9999
2 56232  49.9927 181.1164 0010688 336.8538  23.1947 15.53998265163279
METEOR-M2 3             
1 57166U 23091A   26060.52658906  .00000028  00000+0  31007-4 0  9999
2 57166  98.6233 117.6402 0004991 117.7704 242.3982 14.24036671139196
TIANMU-1 07             
1 57399U 23101A   26060.47030376  .00007233  00000+0  25812-3 0  9999
2 57399  97.2748 113.6020 0004573 151.2728 208.8765 15.29158102145189
TIANMU-1 08             
1 57400U 23101B   26060.50583958  .00000459  00000+0  18751-4 0  9993
2 57400  97.2733 113.4152 0006243 148.4291 211.7325 15.29190663145182
TIANMU-1 09             
1 57401U 23101C   26060.48715153  .00000711  00000+0  27674-4 0  9990
2 57401  97.2693 112.8778 0005031 155.8632 204.2845 15.29176553145186
TIANMU-1 10             
1 57402U 23101D   26060.52169671  .00008592  00000+0  30582-3 0  9990
2 57402  97.2773 113.8453 0006680 156.4499 203.7049 15.29174557145188
FENGYUN 3F              
1 57490U 23111A   26060.51389285  .00000105  00000+0  69713-4 0  9993
2 57490  98.6946 132.4877 0001365  83.2822 276.8510 14.19917243133581
ARKTIKA-M 2             
1 58584U 23198A   26059.09187419  .00000130  00000+0  00000+0 0  9996
2 58584  63.2197 166.4493 6876411 267.7961  18.8403  2.00614424 16132
TIANMU-1 11             
1 58645U 23205A   26060.54291206  .00008129  00000+0  32087-3 0  9995
2 58645  97.3553  83.8264 0009950  35.2965 324.8930 15.25747471121103
TIANMU-1 12             
1 58646U 23205B   26060.50934369  .00007582  00000+0  30037-3 0  9991
2 58646  97.3541  83.5744 0007790  22.5099 337.6479 15.25668635121089
TIANMU-1 13             
1 58647U 23205C   26060.54050722  .00008210  00000+0  32452-3 0  9990
2 58647  97.3569  83.8403 0007412   4.2299 355.9001 15.25717933121085
TIANMU-1 14             
1 58648U 23205D   26060.52495397  .00008165  00000+0  32292-3 0  9991
2 58648  97.3503  83.1014 0008338   7.1698 352.9658 15.25695862121089
TIANMU-1 19             
1 58660U 23208A   26060.48784139  .00011231  00000+0  39363-3 0  9992
2 58660  97.4382 176.4682 0004467 351.4918   8.6246 15.29623587120856
TIANMU-1 20             
1 58661U 23208B   26060.54389053  .00011687  00000+0  39461-3 0  9990
2 58661  97.4321 177.0499 0006821 356.6515   3.4679 15.30814965120946
TIANMU-1 21             
1 58662U 23208C   26060.48771803  .00013789  00000+0  43733-3 0  9994
2 58662  97.4375 179.2372 0006561 350.4300   9.6816 15.32791772121051
TIANMU-1 22             
1 58663U 23208D   26060.50346684  .00010587  00000+0  37547-3 0  9992
2 58663  97.4377 176.5002 0003780  22.7646 337.3761 15.29255939120860
